OBJECT_NAME,OBJECT_ID,EPOCH,MEAN_MOTION,ECCENTRICITY,INCLINATION,RA_OF_ASC_NODE,ARG_OF_PERICENTER,MEAN_ANOMALY,EPHEMERIS_TYPE,CLASSIFICATION_TYPE,NORAD_CAT_ID,ELEMENT_SET_NO,REV_AT_EPOCH,BSTAR,MEAN_MOTION_DOT,MEAN_MOTION_DDOT
LEMUR-2-FINNIAN,2025-276DX,2026-07-15T03:43:26.139360,15.00617476,.00073548,97.5350,266.2766,0.2021,359.9205,0,U,66782,999,2419,.12854276E-3,.1567E-4,0
LEMUR-2-STARLIGHT,2025-276DY,2026-07-15T03:15:27.185184,14.99354208,.00147264,97.5237,265.8187,47.7053,312.5417,0,U,66783,999,3438,.30358549E-3,.3663E-4,0
LEMUR-2-TARTIFLETTE,2025-276DZ,2026-07-15T04:49:15.063456,14.99339842,.00139293,97.5233,265.8902,55.6711,304.5828,0,U,66784,999,3439,.28026127E-3,.3375E-4,0
LEMUR-2-VUKASIN,2025-276EA,2026-07-15T10:30:39.583296,15.00547816,.00030097,97.5225,266.4784,54.6236,305.5269,0,U,66785,999,3438,.20106065E-3,.2479E-4,0
LEMUR-2-HOTSPUR-TOM,2025-276EB,2026-07-15T04:41:11.423904,14.99240859,.00137957,97.5219,265.8589,46.9965,313.2412,0,U,66786,999,3432,.24195779E-3,.2898E-4,0
LEMUR-2-MYRA,2025-276EC,2026-07-15T14:28:37.879680,15.00592721,.00186802,97.5221,266.5577,53.0865,307.2067,0,U,66787,999,3447,.28310764E-3,.353E-4,0
LEMUR-2 FIKRETDENGIZ,2026-004A,2026-07-15T12:05:34.002528,14.88518624,.00101747,97.8024,194.6315,55.0789,305.1382,0,U,67363,999,2749,.20206415E-3,.1825E-4,0
TWILIGHT-1 OBJECT B,2026-004B,2026-07-15T12:59:16.237824,14.87794359,.00097163,97.8075,194.6687,44.9694,315.2307,0,U,67364,999,2750,.10691159E-3,.922E-5,0
LEMUR-2-MARIO-SOUSA,2026-004C,2026-07-15T13:13:17.631264,14.88729739,.00098288,97.7998,194.6728,56.1473,304.0678,0,U,67365,999,2751,.28271897E-3,.2589E-4,0
LEMUR-2-SONNENBLUME,2026-004E,2026-07-15T10:03:53.251776,14.88453773,.00093787,97.8001,194.5158,57.5797,302.6326,0,U,67367,999,2749,.15718359E-3,.1405E-4,0
LEMUR-2-WOBLER,2026-004F,2026-07-15T00:07:40.875744,14.88696914,.00094802,97.8047,194.2589,50.7409,309.4648,0,U,67368,999,2743,.24676456E-3,.2251E-4,0
LEMUR-2-GRAM-E-SUE,2026-004H,2026-07-15T14:27:29.234880,14.88590755,.00085756,97.7987,194.7126,59.8938,300.3128,0,U,67370,999,2752,.14251046E-3,.1273E-4,0
LEMUR-2-KATIE,2026-004AA,2026-07-15T11:48:10.498752,14.90253128,.00034984,97.8043,195.1561,33.6279,326.5160,0,U,67387,999,2752,.26615225E-3,.2527E-4,0
LEMUR-2-HCS-BAZUS,2026-004AB,2026-07-15T11:45:48.226464,14.90262460,.00029455,97.8038,195.1327,32.8787,327.2613,0,U,67388,999,2752,.15999743E-3,.1497E-4,0
