LEMUR-2-FINNIAN         
1 66782U 25276DX  26196.15516365  .00001567  00000+0  12854-3 0  9998
2 66782  97.5350 266.2766 0007354   0.2021 359.9205 15.00617476 24195
LEMUR-2-STARLIGHT       
1 66783U 25276DY  26196.13573131  .00003663  00000+0  30359-3 0  9990
2 66783  97.5237 265.8187 0014726  47.7053 312.5417 14.99354208 34384
LEMUR-2-TARTIFLETTE     
1 66784U 25276DZ  26196.20086879  .00003375  00000+0  28026-3 0  9995
2 66784  97.5233 265.8902 0013929  55.6711 304.5828 14.99339842 34394
LEMUR-2-VUKASIN         
1 66785U 25276EA  26196.43795814  .00002479  00000+0  20106-3 0  9992
2 66785  97.5225 266.4784 0003009  54.6236 305.5269 15.00547816 34384
LEMUR-2-HOTSPUR-TOM     
1 66786U 25276EB  26196.19527111  .00002898  00000+0  24196-3 0  9997
2 66786  97.5219 265.8589 0013795  46.9965 313.2412 14.99240859 34324
LEMUR-2-MYRA            
1 66787U 25276EC  26196.60321620  .00003530  00000+0  28311-3 0  9998
2 66787  97.5221 266.5577 0018680  53.0865 307.2067 15.00592721 34475
LEMUR-2 FIKRETDENGIZ    
1 67363U 26004A   26196.50386577  .00001825  00000+0  20206-3 0  9990
2 67363  97.8024 194.6315 0010174  55.0789 305.1382 14.88518624 27494
TWILIGHT-1 OBJECT B     
1 67364U 26004B   26196.54116016  .00000922  00000+0  10691-3 0  9998
2 67364  97.8075 194.6687 0009716  44.9694 315.2307 14.87794359 27506
LEMUR-2-MARIO-SOUSA     
1 67365U 26004C   26196.55089851  .00002589  00000+0  28272-3 0  9991
2 67365  97.7998 194.6728 0009828  56.1473 304.0678 14.88729739 27519
LEMUR-2-SONNENBLUME     
1 67367U 26004E   26196.41936634  .00001405  00000+0  15718-3 0  9995
2 67367  97.8001 194.5158 0009378  57.5797 302.6326 14.88453773 27490
LEMUR-2-WOBLER          
1 67368U 26004F   26196.00533421  .00002251  00000+0  24676-3 0  9991
2 67368  97.8047 194.2589 0009480  50.7409 309.4648 14.88696914 27437
LEMUR-2-GRAM-E-SUE      
1 67370U 26004H   26196.60242170  .00001273  00000+0  14251-3 0  9999
2 67370  97.7987 194.7126 0008575  59.8938 300.3128 14.88590755 27524
LEMUR-2-KATIE           
1 67387U 26004AA  26196.49178818  .00002527  00000+0  26615-3 0  9991
2 67387  97.8043 195.1561 0003498  33.6279 326.5160 14.90253128 27520
LEMUR-2-HCS-BAZUS       
1 67388U 26004AB  26196.49014151  .00001497  00000+0  16000-3 0  9993
2 67388  97.8038 195.1327 0002945  32.8787 327.2613 14.90262460 27526
